start=new Date('2022-03-08T00:00:00.000Z').valueOf();
sats=[{"FILE":"3349821","MEAN_MOTION_DDOT":"0.0000000000000","OBJECT_TYPE":"PAYLOAD","RA_OF_ASC_NODE":"323.4421","ARG_OF_PERICENTER":"52.6972","MEAN_ANOMALY":"307.4179","PERIOD":"95.593","TLE_LINE2":"2 45734  53.0564 323.4421 0001774  52.6972 307.4179 15.06384383 95711","BSTAR":"-0.00025613000000","RCS_SIZE":"LARGE","EPHEMERIS_TYPE":"0","INCLINATION":"53.0564","OBJECT_NAME":"STARLINK-1468","MEAN_ELEMENT_THEORY":"SGP4","CENTER_NAME":"EARTH","CLASSIFICATION_TYPE":"U","TLE_LINE1":"1 45734U 20038E   22066.87634197 -.00004093  00000-0 -25613-3 0  9995","COUNTRY_CODE":"US","GP_ID":"198185967","EPOCH":"2022-03-07T21:01:55.946208","ECCENTRICITY":"0.00017740","APOAPSIS":"548.490","TIME_SYSTEM":"UTC","SITE":"AFETR","MEAN_MOTION":"15.06384383","ELEMENT_SET_NO":"999","REF_FRAME":"TEME","SEMIMAJOR_AXIS":"6925.396","LAUNCH_DATE":"2020-06-13","OBJECT_ID":"2020-038E","MEAN_MOTION_DOT":"-0.00004093","NORAD_CAT_ID":"45734","DECAY_DATE":null,"PERIAPSIS":"546.033","REV_AT_EPOCH":"9571"},{"MEAN_MOTION_DDOT":"0.0000000000000","RA_OF_ASC_NODE":"323.2821","OBJECT_TYPE":"PAYLOAD","FILE":"3349821","ARG_OF_PERICENTER":"67.1054","MEAN_ANOMALY":"293.0103","PERIOD":"95.593","BSTAR":"-0.00014175000000","RCS_SIZE":"LARGE","EPHEMERIS_TYPE":"0","TLE_LINE2":"2 45735  53.0563 323.2821 0001597  67.1054 293.0103 15.06390125 95716","CLASSIFICATION_TYPE":"U","INCLINATION":"53.0563","OBJECT_NAME":"STARLINK-1471","MEAN_ELEMENT_THEORY":"SGP4","CENTER_NAME":"EARTH","EPOCH":"2022-03-07T21:55:01.457184","ECCENTRICITY":"0.00015970","GP_ID":"198185718","TLE_LINE1":"1 45735U 20038F   22066.91321131 -.00002392  00000-0 -14175-3 0  9993","COUNTRY_CODE":"US","APOAPSIS":"548.350","TIME_SYSTEM":"UTC","MEAN_MOTION_DOT":"-0.00002392","OBJECT_ID":"2020-038F","SITE":"AFETR","MEAN_MOTION":"15.06390125","ELEMENT_SET_NO":"999","REF_FRAME":"TEME","SEMIMAJOR_AXIS":"6925.379","LAUNCH_DATE":"2020-06-13","PERIAPSIS":"546.138","REV_AT_EPOCH":"9571","NORAD_CAT_ID":"45735","DECAY_DATE":null},{"MEAN_MOTION_DDOT":"0.0000000000000","RA_OF_ASC_NODE":"316.2872","OBJECT_TYPE":"PAYLOAD","FILE":"3349821","ARG_OF_PERICENTER":"15.8891","MEAN_ANOMALY":"344.2162","PERIOD":"93.803","BSTAR":"0.00023506000000","RCS_SIZE":"LARGE","EPHEMERIS_TYPE":"0","TLE_LINE2":"2 45736  53.0640 316.2872 0001670  15.8891 344.2162 15.35139601 95819","CLASSIFICATION_TYPE":"U","OBJECT_NAME":"STARLINK-1472","INCLINATION":"53.0640","MEAN_ELEMENT_THEORY":"SGP4","CENTER_NAME":"EARTH","EPOCH":"2022-03-07T21:00:45.379872","ECCENTRICITY":"0.00016700","COUNTRY_CODE":"US","TLE_LINE1":"1 45736U 20038G   22066.87552523  .00007760  00000-0  23506-3 0  9990","GP_ID":"198186969","APOAPSIS":"461.650","TIME_SYSTEM":"UTC","OBJECT_ID":"2020-038G","MEAN_MOTION_DOT":"0.00007760","SITE":"AFETR","MEAN_MOTION":"15.35139601","ELEMENT_SET_NO":"999","SEMIMAJOR_AXIS":"6838.643","REF_FRAME":"TEME","LAUNCH_DATE":"2020-06-13","PERIAPSIS":"459.366","REV_AT_EPOCH":"9581","NORAD_CAT_ID":"45736","DECAY_DATE":null},{"APOAPSIS":"548.460","TIME_SYSTEM":"UTC","ECCENTRICITY":"0.00017830","EPOCH":"2022-03-07T21:39:04.929696","GP_ID":"198186720","TLE_LINE1":"1 45738U 20038J   22066.90214039  .00000283  00000-0  37899-4 0  9997","COUNTRY_CODE":"US","REV_AT_EPOCH":"9571","PERIAPSIS":"545.991","NORAD_CAT_ID":"45738","DECAY_DATE":null,"OBJECT_ID":"2020-038J","MEAN_MOTION_DOT":"0.00000283","ELEMENT_SET_NO":"999","MEAN_MOTION":"15.06396155","SITE":"AFETR","LAUNCH_DATE":"2020-06-13","REF_FRAME":"TEME","SEMIMAJOR_AXIS":"6925.360","ARG_OF_PERICENTER":"55.5478","PERIOD":"95.592","MEAN_ANOMALY":"304.5680","MEAN_MOTION_DDOT":"0.0000000000000","RA_OF_ASC_NODE":"323.3276","OBJECT_TYPE":"PAYLOAD","FILE":"3349821","CLASSIFICATION_TYPE":"U","MEAN_ELEMENT_THEORY":"SGP4","CENTER_NAME":"EARTH","INCLINATION":"53.0567","OBJECT_NAME":"STARLINK-1474","BSTAR":"0.00003789900000","EPHEMERIS_TYPE":"0","RCS_SIZE":"LARGE","TLE_LINE2":"2 45738  53.0567 323.3276 0001783  55.5478 304.5680 15.06396155 95713"},{"FILE":"3349821","OBJECT_TYPE":"PAYLOAD","RA_OF_ASC_NODE":"283.2568","MEAN_MOTION_DDOT":"0.0000000000000","MEAN_ANOMALY":"293.1172","PERIOD":"95.592","ARG_OF_PERICENTER":"66.9971","TLE_LINE2":"2 45739  53.0532 283.2568 0001470  66.9971 293.1172 15.06396189 96279","RCS_SIZE":"LARGE","EPHEMERIS_TYPE":"0","BSTAR":"-0.00007814500000","OBJECT_NAME":"STARLINK-1475","INCLINATION":"53.0532","CENTER_NAME":"EARTH","MEAN_ELEMENT_THEORY":"SGP4","CLASSIFICATION_TYPE":"U","GP_ID":"198185468","TLE_LINE1":"1 45739U 20038K   22066.91689271 -.00001445  00000-0 -78145-4 0  9995","COUNTRY_CODE":"US","EPOCH":"2022-03-07T22:00:19.530144","ECCENTRICITY":"0.00014700","TIME_SYSTEM":"UTC","APOAPSIS":"548.243","REF_FRAME":"TEME","SEMIMAJOR_AXIS":"6925.360","LAUNCH_DATE":"2020-06-13","SITE":"AFETR","ELEMENT_SET_NO":"999","MEAN_MOTION":"15.06396189","OBJECT_ID":"2020-038K","MEAN_MOTION_DOT":"-0.00001445","DECAY_DATE":null,"NORAD_CAT_ID":"45739","REV_AT_EPOCH":"9627","PERIAPSIS":"546.207"},{"OBJECT_ID":"2020-038L","MEAN_MOTION_DOT":"-0.00003471","REF_FRAME":"TEME","SEMIMAJOR_AXIS":"6925.394","LAUNCH_DATE":"2020-06-13","SITE":"AFETR","ELEMENT_SET_NO":"999","MEAN_MOTION":"15.06385014","PERIAPSIS":"546.162","REV_AT_EPOCH":"9571","DECAY_DATE":null,"NORAD_CAT_ID":"45740","EPOCH":"2022-03-07T21:49:42.738816","ECCENTRICITY":"0.00015850","TLE_LINE1":"1 45740U 20038L   22066.90952244 -.00003471  00000-0 -21429-3 0  9992","COUNTRY_CODE":"US","GP_ID":"198186218","TIME_SYSTEM":"UTC","APOAPSIS":"548.357","RCS_SIZE":"LARGE","EPHEMERIS_TYPE":"0","BSTAR":"-0.00021429000000","TLE_LINE2":"2 45740  53.0558 323.3019 0001585  68.0407 292.0751 15.06385014 95714","CLASSIFICATION_TYPE":"U","INCLINATION":"53.0558","OBJECT_NAME":"STARLINK-1479","CENTER_NAME":"EARTH","MEAN_ELEMENT_THEORY":"SGP4","OBJECT_TYPE":"PAYLOAD","RA_OF_ASC_NODE":"323.3019","MEAN_MOTION_DDOT":"0.0000000000000","FILE":"3349821","MEAN_ANOMALY":"292.0751","PERIOD":"95.593","ARG_OF_PERICENTER":"68.0407"},{"RA_OF_ASC_NODE":"323.4376","OBJECT_TYPE":"PAYLOAD","MEAN_MOTION_DDOT":"0.0000000000000","FILE":"3349821","PERIOD":"95.593","MEAN_ANOMALY":"306.8709","ARG_OF_PERICENTER":"53.2416","EPHEMERIS_TYPE":"0","RCS_SIZE":"LARGE","BSTAR":"-0.00012990000000","TLE_LINE2":"2 45741  53.0547 323.4376 0001488  53.2416 306.8709 15.06386992 95722","CLASSIFICATION_TYPE":"U","MEAN_ELEMENT_THEORY":"SGP4","CENTER_NAME":"EARTH","OBJECT_NAME":"STARLINK-1480","INCLINATION":"53.0547","ECCENTRICITY":"0.00014880","EPOCH":"2022-03-07T21:07:13.838592","GP_ID":"198186470","TLE_LINE1":"1 45741U 20038M   22066.88002128 -.00002215  00000-0 -12990-3 0  9995","COUNTRY_CODE":"US","TIME_SYSTEM":"UTC","APOAPSIS":"548.284","MEAN_MOTION_DOT":"-0.00002215","OBJECT_ID":"2020-038M","LAUNCH_DATE":"2020-06-13","SEMIMAJOR_AXIS":"6925.388","REF_FRAME":"TEME","ELEMENT_SET_NO":"999","MEAN_MOTION":"15.06386992","SITE":"AFETR","PERIAPSIS":"546.223","REV_AT_EPOCH":"9572","DECAY_DATE":null,"NORAD_CAT_ID":"45741"},{"EPHEMERIS_TYPE":"0","RCS_SIZE":"LARGE","BSTAR":"0.00003239800000","TLE_LINE2":"2 45742  53.0554 323.4540 0001563  57.9944 302.1196 15.06404191 95704","CLASSIFICATION_TYPE":"U","MEAN_ELEMENT_THEORY":"SGP4","CENTER_NAME":"EARTH","INCLINATION":"53.0554","OBJECT_NAME":"STARLINK-1481","OBJECT_TYPE":"PAYLOAD","RA_OF_ASC_NODE":"323.4540","MEAN_MOTION_DDOT":"0.0000000000000","FILE":"3349821","PERIOD":"95.592","MEAN_ANOMALY":"302.1196","ARG_OF_PERICENTER":"57.9944","MEAN_MOTION_DOT":"0.00000201","OBJECT_ID":"2020-038N","LAUNCH_DATE":"2020-06-13","REF_FRAME":"TEME","SEMIMAJOR_AXIS":"6925.336","ELEMENT_SET_NO":"999","MEAN_MOTION":"15.06404191","SITE":"AFETR","PERIAPSIS":"546.118","REV_AT_EPOCH":"9570","DECAY_DATE":null,"NORAD_CAT_ID":"45742","ECCENTRICITY":"0.00015630","EPOCH":"2022-03-07T20:56:36.561696","TLE_LINE1":"1 45742U 20038N   22066.87264539  .00000201  00000-0  32398-4 0  9997","GP_ID":"198187220","COUNTRY_CODE":"US","TIME_SYSTEM":"UTC","APOAPSIS":"548.283"},{"RA_OF_ASC_NODE":"323.2354","OBJECT_TYPE":"PAYLOAD","MEAN_MOTION_DDOT":"0.0000000000000","FILE":"3349821","PERIOD":"95.560","MEAN_ANOMALY":"300.2754","ARG_OF_PERICENTER":"59.8387","EPHEMERIS_TYPE":"0","RCS_SIZE":"LARGE","BSTAR":"0.00366950000000","TLE_LINE2":"2 45743  53.0598 323.2354 0001536  59.8387 300.2754 15.06911773 95715","CLASSIFICATION_TYPE":"U","MEAN_ELEMENT_THEORY":"SGP4","CENTER_NAME":"EARTH","OBJECT_NAME":"STARLINK-1483","INCLINATION":"53.0598","ECCENTRICITY":"0.00015360","EPOCH":"2022-03-07T21:22:10.399296","COUNTRY_CODE":"US","TLE_LINE1":"1 45743U 20038P   22066.89039814  .00055574  00000-0  36695-2 0  9991","GP_ID":"198185968","TIME_SYSTEM":"UTC","APOAPSIS":"546.709","OBJECT_ID":"2020-038P","MEAN_MOTION_DOT":"0.00055574","LAUNCH_DATE":"2020-06-13","REF_FRAME":"TEME","SEMIMAJOR_AXIS":"6923.780","ELEMENT_SET_NO":"999","MEAN_MOTION":"15.06911773","SITE":"AFETR","PERIAPSIS":"544.582","REV_AT_EPOCH":"9571","DECAY_DATE":null,"NORAD_CAT_ID":"45743"},{"TLE_LINE1":"1 45744U 20038Q   22066.92795443 -.00002110  00000-0 -12280-3 0  9998","GP_ID":"198185719","COUNTRY_CODE":"US","ECCENTRICITY":"0.00017520","EPOCH":"2022-03-07T22:16:15.262752","APOAPSIS":"548.455","TIME_SYSTEM":"UTC","MEAN_MOTION":"15.06390927","ELEMENT_SET_NO":"999","SITE":"AFETR","LAUNCH_DATE":"2020-06-13","REF_FRAME":"TEME","SEMIMAJOR_AXIS":"6925.376","OBJECT_ID":"2020-038Q","MEAN_MOTION_DOT":"-0.00002110","NORAD_CAT_ID":"45744","DECAY_DATE":null,"PERIAPSIS":"546.028","REV_AT_EPOCH":"9572","FILE":"3349821","MEAN_MOTION_DDOT":"0.0000000000000","OBJECT_TYPE":"PAYLOAD","RA_OF_ASC_NODE":"323.2078","ARG_OF_PERICENTER":"49.3686","PERIOD":"95.593","MEAN_ANOMALY":"310.7456","TLE_LINE2":"2 45744  53.0541 323.2078 0001752  49.3686 310.7456 15.06390927 95721","BSTAR":"-0.00012280000000","EPHEMERIS_TYPE":"0","RCS_SIZE":"LARGE","MEAN_ELEMENT_THEORY":"SGP4","CENTER_NAME":"EARTH","INCLINATION":"53.0541","OBJECT_NAME":"STARLINK-1500","CLASSIFICATION_TYPE":"U"}];
